OBJECT_NAME,OBJECT_ID,EPOCH,MEAN_MOTION,ECCENTRICITY,INCLINATION,RA_OF_ASC_NODE,ARG_OF_PERICENTER,MEAN_ANOMALY,EPHEMERIS_TYPE,CLASSIFICATION_TYPE,NORAD_CAT_ID,ELEMENT_SET_NO,REV_AT_EPOCH,BSTAR,MEAN_MOTION_DOT,MEAN_MOTION_DDOT
GLOBALSTAR M069,2007-020C,2026-06-30T12:40:50.916576,12.23471685,.00020287,52.0002,214.3659,177.4741,335.0354,0,U,31573,999,88043,.23114651E-3,-.68E-6,0
GLOBALSTAR M072,2007-020D,2026-06-30T23:08:06.830016,11.91658424,.0001554,51.9938,63.5681,5.7366,7.4521,0,U,31574,999,87662,.19887E-3,-.7E-6,0
GLOBALSTAR M066,2007-048C,2026-06-30T00:23:23.222400,12.30387598,.0005648,51.9600,21.0842,71.4931,94.1146,0,U,32265,999,86180,-.16235E-4,-.96E-6,0
GLOBALSTAR M079,2010-054A,2026-06-30T23:35:20.539968,12.62266319,.000099,52.0045,66.6743,53.1819,319.8244,0,U,37188,999,72429,.10318E-3,-.85E-6,0
GLOBALSTAR M074,2010-054B,2026-06-30T14:41:10.392576,12.62261924,.00007656,52.0027,67.0661,71.8333,294.8987,0,U,37189,999,72485,.12637951E-3,-.81E-6,0
GLOBALSTAR M076,2010-054C,2026-06-30T22:57:23.659776,12.62261929,.0000996,52.0036,66.2217,67.6378,305.6567,0,U,37190,999,72461,.69233E-4,-.91E-6,0
GLOBALSTAR M077,2010-054D,2026-07-01T03:38:10.292064,11.67547961,.0002505,51.9934,143.8512,198.2303,175.3685,0,U,37191,999,72277,-.29194E-3,-.94E-6,0
GLOBALSTAR M075,2010-054E,2026-07-01T01:10:09.153120,12.62267517,.0000489,51.9944,107.9874,41.3429,331.3029,0,U,37192,999,72369,.4766E-4,-.95E-6,0
GLOBALSTAR M073,2010-054F,2026-07-01T00:04:30.514080,12.62266791,.00011,52.0077,22.2375,74.2416,89.5626,0,U,37193,999,72567,.98291E-4,-.86E-6,0
GLOBALSTAR M083,2011-033A,2026-07-01T04:13:24.907008,12.62263755,.0000947,51.9878,329.9208,88.4578,82.5589,0,U,37739,999,69471,.11114E-3,-.84E-6,0
GLOBALSTAR M088,2011-033B,2026-06-30T12:03:57.794400,12.62269094,.00003942,52.0197,238.4325,146.6106,322.1682,0,U,37740,999,69017,.17393755E-3,-.73E-6,0
GLOBALSTAR M091,2011-033C,2026-06-30T08:32:45.097728,12.62264150,.00000354,51.9967,201.8237,324.1113,138.6403,0,U,37741,999,69094,.42867945E-4,-.96E-6,0
GLOBALSTAR M085,2011-033D,2026-07-01T03:06:46.658880,12.62264200,.0000438,52.0104,150.7712,7.8020,72.2028,0,U,37742,999,69155,-.92027E-4,-.12E-5,0
GLOBALSTAR M081,2011-033E,2026-07-01T05:17:45.773088,12.62265314,.0000341,51.9935,152.9147,37.7447,335.5485,0,U,37743,999,69171,-.68899E-4,-.116E-5,0
GLOBALSTAR M089,2011-033F,2026-07-01T02:26:20.763744,12.62267420,.0000549,51.9924,107.4334,79.5393,293.5420,0,U,37744,999,69254,.18071E-4,-.101E-5,0
GLOBALSTAR M084,2011-080A,2026-07-01T03:35:31.818048,12.62267665,.0001075,52.0025,334.7757,108.7325,62.6964,0,U,38040,999,67052,.14392E-4,-.101E-5,0
GLOBALSTAR M080,2011-080B,2026-07-01T04:48:13.214016,12.62265498,.0000422,52.0083,336.3451,78.2417,92.7738,0,U,38041,999,67065,.15018E-4,-.101E-5,0
GLOBALSTAR M082,2011-080C,2026-07-01T01:22:24.036096,12.62263796,.0000414,52.0084,292.2833,109.3744,61.6045,0,U,38042,999,67134,.10967E-3,-.84E-6,0
GLOBALSTAR M092,2011-080D,2026-07-01T02:31:58.566144,12.62267281,.0000849,52.0100,22.5334,83.5552,66.2715,0,U,38043,999,66980,.94041E-4,-.87E-6,0
GLOBALSTAR M090,2011-080E,2026-06-30T16:22:55.490880,12.62252712,.00005528,52.0130,287.3838,105.3746,41.4336,0,U,38044,999,67141,.12434747E-3,-.81E-6,0
GLOBALSTAR M086,2011-080F,2026-07-01T00:37:37.605216,12.62287401,.0001678,51.9904,286.2451,90.3413,80.5003,0,U,38045,999,67140,.20498E-3,-.67E-6,0
GLOBALSTAR M097,2013-005A,2026-06-30T11:10:50.583072,12.62271297,.00001348,52.0014,202.9153,64.2931,295.7949,0,U,39072,999,61858,.68022041E-4,-.92E-6,0
GLOBALSTAR M093,2013-005B,2026-06-30T23:50:22.974144,12.62266197,.0000301,52.0072,194.6607,34.0294,326.0592,0,U,39073,999,61860,.21278E-4,-.1E-5,0
GLOBALSTAR M094,2013-005C,2026-07-01T01:44:12.463008,12.62268406,.0000742,51.9954,108.5226,35.5951,324.4965,0,U,39074,999,62022,-.66033E-4,-.116E-5,0
GLOBALSTAR M096,2013-005D,2026-07-01T02:03:40.159872,12.62265670,.0000376,52.0047,157.2936,10.7569,349.3305,0,U,39075,999,61914,-.10917E-3,-.123E-5,0
GLOBALSTAR M078,2013-005E,2026-06-30T12:06:43.419744,12.62260150,.00005399,51.9861,243.0563,287.1640,72.9167,0,U,39076,999,61769,.51406491E-3,-.12E-6,0
GLOBALSTAR M095,2013-005F,2026-06-30T12:45:11.395296,12.62263818,.00000748,52.0067,240.5978,14.7808,345.3061,0,U,39077,999,61755,.21928966E-3,-.64E-6,0
GLOBALSTAR M087,2022-064A,2026-06-30T22:34:17.301792,12.62269262,.0000923,52.0010,20.5816,65.1584,294.9379,0,U,52888,999,19287,.31333E-4,-.98E-6,0
